{
  "type": "FeatureCollection",
  "features": [
    {
      "type": "Feature",
      "properties": {
        "norad_id": 59626,
        "name": "LEGION 2",
        "group": "resource",
        "lat": 28.618071699359934,
        "lon": 51.800432706477835,
        "alt_km": 514.1861772040475,
        "timestamp": "2025-12-07T03:52:32.127986+00:00",
        "meta_object_name": "LEGION 2",
        "meta_object_id": "2024-081B",
        "meta_epoch": "2025-12-06T13:29:43.509696",
        "meta_mean_motion": 15.1640019,
        "meta_eccentricity": 0.00060543,
        "meta_inclination": 97.5224,
        "meta_ra_of_asc_node": 55.341,
        "meta_arg_of_pericenter": 318.8824,
        "meta_mean_anomaly": 41.1952,
        "meta_ephemeris_type": 0,
        "meta_classification_type": "U",
        "meta_norad_cat_id": 59626,
        "meta_element_set_no": 999,
        "meta_rev_at_epoch": 8834,
        "meta_bstar": 0.00047574349,
        "meta_mean_motion_dot": 9.183e-05,
        "meta_mean_motion_ddot": 0,
        "tle_line1": "1 59626U 24081B   25340.56230914  .00009183  00000+0  47574-3 0  9997",
        "tle_line2": "2 59626  97.5224  55.3410 0006054 318.8824  41.1952 15.16400190 88348"
      },
      "geometry": {
        "type": "Point",
        "coordinates": [
          51.800432706477835,
          28.618071699359934
        ]
      }
    },
    {
      "type": "Feature",
      "properties": {
        "norad_id": 60182,
        "name": "ALOS-4 (DAICHI-4)",
        "group": "resource",
        "lat": 66.08752538279818,
        "lon": 57.7819027273255,
        "alt_km": 623.672077000394,
        "timestamp": "2025-12-07T03:52:32.127996+00:00",
        "meta_object_name": "ALOS-4 (DAICHI-4)",
        "meta_object_id": "2024-123A",
        "meta_epoch": "2025-12-06T12:57:48.916800",
        "meta_mean_motion": 14.79473822,
        "meta_eccentricity": 0.00014431,
        "meta_inclination": 97.9234,
        "meta_ra_of_asc_node": 75.4759,
        "meta_arg_of_pericenter": 101.6248,
        "meta_mean_anomaly": 258.5126,
        "meta_ephemeris_type": 0,
        "meta_classification_type": "U",
        "meta_norad_cat_id": 60182,
        "meta_element_set_no": 999,
        "meta_rev_at_epoch": 7739,
        "meta_bstar": 0.00056809937,
        "meta_mean_motion_dot": 4.194e-05,
        "meta_mean_motion_ddot": 0,
        "tle_line1": "1 60182U 24123A   25340.54014950  .00004194  00000+0  56810-3 0  9991",
        "tle_line2": "2 60182  97.9234  75.4759 0001443 101.6248 258.5126 14.79473822 77396"
      },
      "geometry": {
        "type": "Point",
        "coordinates": [
          57.7819027273255,
          66.08752538279818
        ]
      }
    },
    {
      "type": "Feature",
      "properties": {
        "norad_id": 60452,
        "name": "LEGION 3",
        "group": "resource",
        "lat": 27.501303473873453,
        "lon": 11.426097398155852,
        "alt_km": 520.6449395613317,
        "timestamp": "2025-12-07T03:52:32.128007+00:00",
        "meta_object_name": "LEGION 3",
        "meta_object_id": "2024-146A",
        "meta_epoch": "2025-12-06T11:52:40.770048",
        "meta_mean_motion": 15.15662815,
        "meta_eccentricity": 0.00141405,
        "meta_inclination": 45.0027,
        "meta_ra_of_asc_node": 343.6074,
        "meta_arg_of_pericenter": 163.9855,
        "meta_mean_anomaly": 196.1473,
        "meta_ephemeris_type": 0,
        "meta_classification_type": "U",
        "meta_norad_cat_id": 60452,
        "meta_element_set_no": 999,
        "meta_rev_at_epoch": 7278,
        "meta_bstar": 0.00047300959,
        "meta_mean_motion_dot": 8.918e-05,
        "meta_mean_motion_ddot": 0,
        "tle_line1": "1 60452U 24146A   25340.49491632  .00008918  00000+0  47301-3 0  9999",
        "tle_line2": "2 60452  45.0027 343.6074 0014140 163.9855 196.1473 15.15662815 72786"
      },
      "geometry": {
        "type": "Point",
        "coordinates": [
          11.426097398155852,
          27.501303473873453
        ]
      }
    },
    {
      "type": "Feature",
      "properties": {
        "norad_id": 60453,
        "name": "LEGION 4",
        "group": "resource",
        "lat": 24.948729089707832,
        "lon": 99.47200414340676,
        "alt_km": 517.8555135486204,
        "timestamp": "2025-12-07T03:52:32.128018+00:00",
        "meta_object_name": "LEGION 4",
        "meta_object_id": "2024-146B",
        "meta_epoch": "2025-12-06T15:03:38.937600",
        "meta_mean_motion": 15.1572901,
        "meta_eccentricity": 0.00099085,
        "meta_inclination": 45.0391,
        "meta_ra_of_asc_node": 74.6296,
        "meta_arg_of_pericenter": 279.0526,
        "meta_mean_anomaly": 80.9232,
        "meta_ephemeris_type": 0,
        "meta_classification_type": "U",
        "meta_norad_cat_id": 60453,
        "meta_element_set_no": 999,
        "meta_rev_at_epoch": 7165,
        "meta_bstar": 0.0004844786,
        "meta_mean_motion_dot": 9.148e-05,
        "meta_mean_motion_ddot": 0,
        "tle_line1": "1 60453U 24146B   25340.62753400  .00009148  00000+0  48448-3 0  9998",
        "tle_line2": "2 60453  45.0391  74.6296 0009908 279.0526  80.9232 15.15729010 71657"
      },
      "geometry": {
        "type": "Point",
        "coordinates": [
          99.47200414340676,
          24.948729089707832
        ]
      }
    },
    {
      "type": "Feature",
      "properties": {
        "norad_id": 60989,
        "name": "SENTINEL-2C",
        "group": "resource",
        "lat": 80.81670901848105,
        "lon": -15.123203201185227,
        "alt_km": 780.7328797090977,
        "timestamp": "2025-12-07T03:52:32.128029+00:00",
        "meta_object_name": "SENTINEL-2C",
        "meta_object_id": "2024-157A",
        "meta_epoch": "2025-12-06T10:41:19.358880",
        "meta_mean_motion": 14.30813732,
        "meta_eccentricity": 0.00012017,
        "meta_inclination": 98.5686,
        "meta_ra_of_asc_node": 53.0179,
        "meta_arg_of_pericenter": 102.638,
        "meta_mean_anomaly": 257.4937,
        "meta_ephemeris_type": 0,
        "meta_classification_type": "U",
        "meta_norad_cat_id": 60989,
        "meta_element_set_no": 999,
        "meta_rev_at_epoch": 6542,
        "meta_bstar": 0.00014779688,
        "meta_mean_motion_dot": 3.44e-06,
        "meta_mean_motion_ddot": 0,
        "tle_line1": "1 60989U 24157A   25340.44536295  .00000344  00000+0  14780-3 0  9996",
        "tle_line2": "2 60989  98.5686  53.0179 0001201 102.6380 257.4937 14.30813732 65421"
      },
      "geometry": {
        "type": "Point",
        "coordinates": [
          -15.123203201185227,
          80.81670901848105
        ]
      }
    },
    {
      "type": "Feature",
      "properties": {
        "norad_id": 61735,
        "name": "IONOSFERA-M 1",
        "group": "resource",
        "lat": 24.082410830076654,
        "lon": 34.99533702532807,
        "alt_km": 816.0851658893007,
        "timestamp": "2025-12-07T03:52:32.128039+00:00",
        "meta_object_name": "IONOSFERA-M 1",
        "meta_object_id": "2024-199A",
        "meta_epoch": "2025-12-06T15:19:55.205760",
        "meta_mean_motion": 14.22711941,
        "meta_eccentricity": 0.00012495,
        "meta_inclination": 98.7415,
        "meta_ra_of_asc_node": 210.5336,
        "meta_arg_of_pericenter": 30.5446,
        "meta_mean_anomaly": 329.5804,
        "meta_ephemeris_type": 0,
        "meta_classification_type": "U",
        "meta_norad_cat_id": 61735,
        "meta_element_set_no": 999,
        "meta_rev_at_epoch": 10032,
        "meta_bstar": 8.725476e-05,
        "meta_mean_motion_dot": 1.51e-06,
        "meta_mean_motion_ddot": 0,
        "tle_line1": "1 61735U 24199A   25340.63883340  .00000151  00000+0  87255-4 0  9993",
        "tle_line2": "2 61735  98.7415 210.5336 0001249  30.5446 329.5804 14.22711941100325"
      },
      "geometry": {
        "type": "Point",
        "coordinates": [
          34.99533702532807,
          24.082410830076654
        ]
      }
    },
    {
      "type": "Feature",
      "properties": {
        "norad_id": 61736,
        "name": "IONOSFERA-M 2",
        "group": "resource",
        "lat": -21.73311894922655,
        "lon": -145.51917562457578,
        "alt_km": 822.2511102592953,
        "timestamp": "2025-12-07T03:52:32.128050+00:00",
        "meta_object_name": "IONOSFERA-M 2",
        "meta_object_id": "2024-199B",
        "meta_epoch": "2025-12-06T14:28:33.004992",
        "meta_mean_motion": 14.22714126,
        "meta_eccentricity": 0.00014748,
        "meta_inclination": 98.7413,
        "meta_ra_of_asc_node": 210.4108,
        "meta_arg_of_pericenter": 118.2424,
        "meta_mean_anomaly": 241.8903,
        "meta_ephemeris_type": 0,
        "meta_classification_type": "U",
        "meta_norad_cat_id": 61736,
        "meta_element_set_no": 999,
        "meta_rev_at_epoch": 10344,
        "meta_bstar": 9.2072273e-05,
        "meta_mean_motion_dot": 1.62e-06,
        "meta_mean_motion_ddot": 0,
        "tle_line1": "1 61736U 24199B   25340.60315978  .00000162  00000+0  92072-4 0  9993",
        "tle_line2": "2 61736  98.7413 210.4108 0001474 118.2424 241.8903 14.22714126103440"
      },
      "geometry": {
        "type": "Point",
        "coordinates": [
          -145.51917562457578,
          -21.73311894922655
        ]
      }
    }
  ]
}